NORAD_CAT_ID,OBJECT_NAME,OBJECT_TYPE,EPOCH,MEAN_MOTION,ECCENTRICITY,INCLINATION,RA_OF_ASC_NODE,ARG_OF_PERICENTER,MEAN_ANOMALY,BSTAR,MEAN_MOTION_DOT,MEAN_MOTION_DDOT,TLE_LINE0,TLE_LINE1,TLE_LINE2,SEMIMAJOR_AXIS,PERIOD,APOGEE,PERIGEE,DECAYED
52602.0,STARLINK-4012,PAYLOAD,2022-08-13 06:00:02,15.08827011,0.000144,53.2161,14.9749,61.8824,224.1016,0.0010474,0.00016415,0.0,0 STARLINK-4012,1 52602U 22052E   22225.25002315  .00016415  00000-0  10474-2 0  9992,2 52602  53.2161  14.9749 0001440  61.8824 224.1016 15.08827011 14304,6917.92,95.438,540.781,538.789,0.0
52602.0,STARLINK-4012,PAYLOAD,2022-08-13 14:00:01,15.08847553,0.0001501,53.2162,13.4796,60.2497,237.2506,-0.0013333,-0.00021449,0.0,0 STARLINK-4012,1 52602U 22052E   22225.58334491 -.00021449  00000-0 -13333-2 0  9993,2 52602  53.2162  13.4796 0001501  60.2497 237.2506 15.08847553  1306,6917.857,95.437,540.761,538.684,0.0
52602.0,STARLINK-4012,PAYLOAD,2022-08-13 22:00:00,15.08842124,0.0001592,53.2159,11.984000000000002,53.9709,255.1225,-0.0010594,-0.0001710999999999,0.0,0 STARLINK-4012,1 52602U 22052E   22225.91667824 -.00017110  00000-0 -10594-2 0  9995,2 52602  53.2159  11.9840 0001592  53.9709 255.1225 15.08842124  1306,6917.874,95.437,540.84,538.638,0.0
52602.0,STARLINK-4012,PAYLOAD,2022-08-14 06:00:02,15.08798101,0.0001538,53.216,10.4858,62.9256,257.8379,0.0032133,0.00051164,0.0,0 STARLINK-4012,1 52602U 22052E   22226.25002315  .00051164  00000-0  32133-2 0  9999,2 52602  53.2160  10.4858 0001538  62.9256 257.8379 15.08798101 14452,6918.0080000000025,95.44,540.937,538.809,0.0
52602.0,STARLINK-4012,PAYLOAD,2022-08-14 14:00:01,15.08842922,0.0001648,53.2162,8.9906,60.7315,271.5323,-0.0012640999999999,-0.00020352,0.0,0 STARLINK-4012,1 52602U 22052E   22226.58334491 -.00020352  00000-0 -12641-2 0  9997,2 52602  53.2162   8.9906 0001648  60.7315 271.5323 15.08842922  1307,6917.871,95.437,540.877,538.596,0.0
52602.0,STARLINK-4012,PAYLOAD,2022-08-14 22:00:00,15.08834141,0.0001691,53.2161,7.4948,54.3471,289.5065,0.0013631,0.00021469,0.0,0 STARLINK-4012,1 52602U 22052E   22226.91667824  .00021469  00000-0  13631-2 0  9991,2 52602  53.2161   7.4948 0001691  54.3471 289.5065 15.08834141  1302,6917.898,95.438,540.933,538.5930000000002,0.0
52602.0,STARLINK-4012,PAYLOAD,2022-08-15 00:00:00,15.08852972,0.000168,53.2162,7.1202,55.9911,20.7548,-0.0011611,-0.00018726,0.0,0 STARLINK-4012,1 52602U 22052E   22227.00001157 -.00018726  00000-0 -11611-2 0  9993,2 52602  53.2162   7.1202 0001680  55.9911  20.7548 15.08852972 14562,6917.840999999999,95.437,540.868,538.544,0.0
52602.0,STARLINK-4012,PAYLOAD,2022-08-15 14:00:01,15.0886638,0.0001649,53.2165,4.5016,57.7411,309.3071,-0.0038293,-0.00060762,0.0,0 STARLINK-4012,1 52602U 22052E   22227.58334491 -.00060762  00000-0 -38293-2 0  9998,2 52602  53.2165   4.5016 0001649  57.7411 309.3071 15.08866380  1302,6917.8,95.436,540.806,538.524,0.0
52602.0,STARLINK-4012,PAYLOAD,2022-08-15 22:00:00,15.08831613,0.0001652,53.2164,3.0057,51.20399999999999,327.4418,0.00078771,0.00012268,0.0,0 STARLINK-4012,1 52602U 22052E   22227.91667824  .00012268  00000-0  78771-3 0  9996,2 52602  53.2164   3.0057 0001652  51.2040 327.4418 15.08831613  1308,6917.906,95.438,540.914,538.628,0.0
52602.0,STARLINK-4012,PAYLOAD,2022-08-16 00:00:00,15.08848648,0.0001631,53.2165,2.6311,53.1854,58.3529,-0.0013564999999999,-0.00021817,0.0,0 STARLINK-4012,1 52602U 22052E   22228.00001157 -.00021817  00000-0 -13565-2 0  9999,2 52602  53.2165   2.6311 0001631  53.1854  58.3529 15.08848648 14716,6917.854,95.437,540.847,538.591,0.0
52602.0,STARLINK-4012,PAYLOAD,2022-08-16 14:00:01,15.08866269,0.0001646,53.2168,0.0126,54.828,347.0056,-0.0020934,-0.00033474,0.0,0 STARLINK-4012,1 52602U 22052E   22228.58334491 -.00033474  00000-0 -20934-2 0  9992,2 52602  53.2168   0.0126 0001646  54.8280 347.0056 15.08866269 14804,6917.8,95.436,540.804,538.526,0.0
52602.0,STARLINK-4012,PAYLOAD,2022-08-16 22:00:00,15.08848362,0.0001629,53.2167,358.5165,49.084,4.3635,-0.0010599,-0.00017121,0.0,0 STARLINK-4012,1 52602U 22052E   22228.91667824 -.00017121  00000-0 -10599-2 0  9995,2 52602  53.2167 358.5165 0001629  49.0840   4.3635 15.08848362  1307,6917.855,95.437,540.847,538.5930000000002,0.0
52602.0,STARLINK-4012,PAYLOAD,2022-08-17 14:00:01,15.08849871,0.0001673,53.2171,355.5236,53.5842,23.0554,-0.0030698,-0.00048826,0.0,0 STARLINK-4012,1 52602U 22052E   22229.58334491 -.00048826  00000-0 -30698-2 0  9998,2 52602  53.2171 355.5236 0001673  53.5842  23.0554 15.08849871 14958,6917.85,95.437,540.873,538.558,0.0
52602.0,STARLINK-4012,PAYLOAD,2022-08-17 16:00:00,15.08826527,0.000172,53.2171,355.1498,52.6427,116.9015,-0.00018972,-3.305e-05,0.0,0 STARLINK-4012,1 52602U 22052E   22229.66667824 -.00003305  00000-0 -18972-3 0  9991,2 52602  53.2171 355.1498 0001720  52.6427 116.9015 15.08826527  1308,6917.922,95.438,540.976,538.597,0.0
52602.0,STARLINK-4012,PAYLOAD,2022-08-18 08:00:01,15.08855311,0.0001636,53.2172,352.1555,61.0975,131.613,-0.0011017,-0.00017786,0.0,0 STARLINK-4012,1 52602U 22052E   22230.33334491 -.00017786  00000-0 -11017-2 0  9998,2 52602  53.2172 352.1555 0001636  61.0975 131.6130 15.08855311 15061,6917.834,95.437,540.83,538.567,0.0
52602.0,STARLINK-4012,PAYLOAD,2022-08-18 14:00:01,15.08839331,0.000178,53.217,351.0346,56.2705,55.1488,-0.0017084,-0.00027374,0.0,0 STARLINK-4012,1 52602U 22052E   22230.58334491 -.00027374  00000-0 -17084-2 0  9999,2 52602  53.2170 351.0346 0001780  56.2705  55.1488 15.08839331  1304,6917.882,95.438,540.979,538.516,0.0
52602.0,STARLINK-4012,PAYLOAD,2022-08-18 22:00:00,15.08839778,0.000179,53.2167,349.5381,53.7195,69.2779,-0.00021046,-3.636e-05,0.0,0 STARLINK-4012,1 52602U 22052E   22230.91667824 -.00003636  00000-0 -21046-3 0  9994,2 52602  53.2167 349.5381 0001790  53.7195  69.2779 15.08839778  1301,6917.880999999999,95.438,540.984,538.508,0.0
52602.0,STARLINK-4012,PAYLOAD,2022-08-19 14:00:01,15.08823447,0.0001672,53.2167,346.5456,54.6317,91.5416,-0.00051101,-8.408e-05,0.0,0 STARLINK-4012,1 52602U 22052E   22231.58334491 -.00008408  00000-0 -51101-3 0  9996,2 52602  53.2167 346.5456 0001672  54.6317  91.5416 15.08823447  1308,6917.931,95.439,540.953,538.639,0.0
52602.0,STARLINK-4012,PAYLOAD,2022-08-19 16:00:00,15.08810476,0.0001717,53.2167,346.1718,53.0632,186.0063,0.0014351,0.00022607,0.0,0 STARLINK-4012,1 52602U 22052E   22231.66667824  .00022607  00000-0  14351-2 0  9994,2 52602  53.2167 346.1718 0001717  53.0632 186.0063 15.08810476 15275,6917.971,95.439,541.023,538.648,0.0
52602.0,STARLINK-4012,PAYLOAD,2022-08-19 22:00:00,15.08835981,0.0001658,53.2163,345.0489,52.9502,104.787,-0.00085953,-0.0001394,0.0,0 STARLINK-4012,1 52602U 22052E   22231.91667824 -.00013940  00000-0 -85953-3 0  9991,2 52602  53.2163 345.0489 0001658  52.9502 104.7870 15.08835981  1302,6917.893,95.438,540.905,538.611,0.0
52602.0,STARLINK-4012,PAYLOAD,2022-08-20 14:00:01,15.08840696,0.0001655,53.2162,342.0566,54.7574,126.1518,-0.00028644,-4.844e-05,0.0,0 STARLINK-4012,1 52602U 22052E   22232.58334491 -.00004844  00000-0 -28644-3 0  9993,2 52602  53.2162 342.0566 0001655  54.7574 126.1518 15.08840696  1306,6917.878000000002,95.438,540.888,538.5980000000002,0.0
52602.0,STARLINK-4012,PAYLOAD,2022-08-20 16:00:00,15.08828564,0.0001686999999999,53.2163,341.6828,53.6761,220.1357,0.0015955,0.00025188,0.0,0 STARLINK-4012,1 52602U 22052E   22232.66667824  .00025188  00000-0  15955-2 0  9993,2 52602  53.2163 341.6828 0001687  53.6761 220.1357 15.08828564 15428,6917.915,95.438,540.947,538.613,0.0
52602.0,STARLINK-4012,PAYLOAD,2022-08-20 22:00:00,15.08871435,0.0001588999999999,53.2159,340.5597,52.7403,139.7578,-0.0042276,-0.00067002,0.0,0 STARLINK-4012,1 52602U 22052E   22232.91667824 -.00067002  00000-0 -42276-2 0  9990,2 52602  53.2159 340.5597 0001589  52.7403 139.7578 15.08871435  1305,6917.784000000002,95.436,540.749,538.55,0.0
52602.0,STARLINK-4012,PAYLOAD,2022-08-21 06:00:00,15.0880866,0.000143,53.2159,339.0621,59.005,145.0957,0.002007,0.0003177,0.0,0 STARLINK-4012,1 52602U 22052E   22233.25001157  .00031770  00000-0  20070-2 0  9998,2 52602  53.2159 339.0621 0001430  59.0050 145.0957 15.08808660 15507,6917.976,95.44,540.83,538.852,0.0
52602.0,STARLINK-4012,PAYLOAD,2022-08-21 14:00:01,15.08825146,0.0001591,53.2159,337.5675,52.0487,163.6279,-9.5649e-05,-1.809e-05,0.0,0 STARLINK-4012,1 52602U 22052E   22233.58334491 -.00001809  00000-0 -95649-4 0  9992,2 52602  53.2159 337.5675 0001591  52.0487 163.6279 15.08825146  1308,6917.926,95.438,540.891,538.69,0.0
52602.0,STARLINK-4012,PAYLOAD,2022-08-21 22:00:00,15.08849328,0.0001544,53.2158,336.0704,50.6662,176.5848,-0.0017355,-0.00027809,0.0,0 STARLINK-4012,1 52602U 22052E   22233.91667824 -.00027809  00000-0 -17355-2 0  9992,2 52602  53.2158 336.0704 0001544  50.6662 176.5848 15.08849328 15602,6917.852,95.437,540.785,538.649,0.0
52602.0,STARLINK-4012,PAYLOAD,2022-08-22 12:00:00,15.08851867,0.0001595,53.2159,333.452,52.713,104.8266,-0.0012725,-0.00020489,0.0,0 STARLINK-4012,1 52602U 22052E   22234.50001157 -.00020489  00000-0 -12725-2 0  9992,2 52602  53.2159 333.4520 0001595  52.7130 104.8266 15.08851867 15697,6917.844,95.437,540.813,538.606,0.0
52602.0,STARLINK-4012,PAYLOAD,2022-08-22 22:00:00,15.08877704,0.0001544,53.2161,331.5811,48.6742,213.3595,-0.0043905,-0.0006956,0.0,0 STARLINK-4012,1 52602U 22052E   22234.91667824 -.00069560  00000-0 -43905-2 0  9993,2 52602  53.2161 331.5811 0001544  48.6742 213.3595 15.08877704  1301,6917.765,95.435,540.698,538.562,0.0
52602.0,STARLINK-4012,PAYLOAD,2022-08-23 06:00:00,15.08822875,0.0001437,53.2163,330.0837,53.7926,219.8534,0.0013437,0.00021152,0.0,0 STARLINK-4012,1 52602U 22052E   22235.25001157  .00021152  00000-0  13437-2 0  9992,2 52602  53.2163 330.0837 0001437  53.7926 219.8534 15.08822875 15811,6917.933000000001,95.439,540.7919999999998,538.804,0.0
